PROBA-1                 
1 26958U 01049B   26189.50927274  .00002414  00000+0  15768-3 0  9996
2 26958  97.9600 198.7865 0056011  51.7146 308.9099 15.07593925346832
CUTE-1 (CO-55)          
1 27844U 03031E   26189.46272727  .00000219  00000+0  11365-3 0  9995
2 27844  98.6739 197.7541 0010666 120.0495 240.1743 14.24348709194707
CUBESAT XI-IV (CO-57)   
1 27848U 03031J   26189.46187375  .00000184  00000+0  99678-4 0  9998
2 27848  98.6772 197.4488 0010258 137.0463 223.1519 14.23632050194408
APRIZESAT 4             
1 35684U 09041D   26188.75612091  .00000543  00000+0  71454-4 0  9992
2 35684  98.1405 264.4862 0041930 254.3409 105.3176 14.83907056914416
APRIZESAT 3             
1 35686U 09041F   26189.36472022  .00001101  00000+0  99795-4 0  9999
2 35686  98.2085 343.6064 0061311 358.3556   1.7453 14.96295907919545
PROBA-2                 
1 36037U 09059B   26189.49207462  .00000148  00000+0  45095-4 0  9991
2 36037  98.2457  12.5501 0012541 210.1352 149.9125 14.54871675884624
APRIZESAT 5             
1 37792U 11044E   26189.28799739  .00000684  00000+0  93764-4 0  9998
2 37792  98.2450 122.9271 0050839 295.5449  64.0511 14.81119492801911
APRIZESAT 6             
1 37793U 11044F   26189.50872104  .00000605  00000+0  92504-4 0  9996
2 37793  98.2346 100.4423 0043600  19.5222 153.7283 14.76950087800296
PROBA-V                 
1 39159U 13021A   26189.41539480  .00000075  00000+0  50791-4 0  9991
2 39159  98.3599 166.9754 0005403  75.4178 284.7600 14.23602514684131
APRIZESAT 7             
1 39416U 13066A   26189.35264643  .00001034  00000+0  10743-3 0  9993
2 39416  97.7718 142.2697 0036772 139.2803 221.1176 14.91609152684383
APRIZESAT 8             
1 39425U 13066K   26189.26128369  .00000612  00000+0  72230-4 0  9998
2 39425  97.8227 136.4364 0044922 215.0065 144.8197 14.87689126682807
BUGSAT-1 (TITA)         
1 40014U 14033E   26189.55792406  .00001966  00000+0  10581-3 0  9993
2 40014  98.0423 283.3606 0029127 107.5760 252.8656 15.15830350659074
SAUDISAT 4              
1 40016U 14033G   26189.35430737  .00000417  00000+0  61719-4 0  9999
2 40016  97.7609 334.7599 0044851   6.4036 353.7740 14.79570691649201
APRIZESAT 9             
1 40018U 14033J   26189.31630843  .00000564  00000+0  89999-4 0  9990
2 40018  97.9086 322.0014 0067180 131.6338 229.0652 14.74246245646677
APRIZESAT 10            
1 40019U 14033K   26189.28312334  .00000455  00000+0  79215-4 0  9998
2 40019  97.9674 315.7750 0078181 205.5135 154.2205 14.70905244645350
TECHDEMOSAT-1 (TDS-1)   
1 40076U 14037H   26189.44761456  .00004494  00000+0  25448-3 0  9991
2 40076  98.3825 183.7731 0006242 179.6492 180.4742 15.13617146651447
TECHNOSAT               
1 42829U 17042E   26189.39184282  .00002491  00000+0  17875-3 0  9998
2 42829  97.4300 346.2462 0018018  25.3253 334.8853 15.05080876489897
FLYING LAPTOP           
1 42831U 17042G   26189.58165177  .00002552  00000+0  20217-3 0  9996
2 42831  97.4784 344.3054 0019922  53.3776 306.9277 15.01284426489666
HAWK-A                  
1 43765U 18099H   26189.54529896  .00004695  00000+0  18859-3 0  9993
2 43765  97.3903 241.5044 0034036 207.5759 152.3675 15.24907869416358
HAWK-B                  
1 43794U 18099AN  26189.59242288  .00003738  00000+0  15968-3 0  9992
2 43794  97.3950 240.9208 0030786 225.8199 134.0508 15.23065510416298
HAWK-C                  
1 43799U 18099AT  26189.40773150  .00005004  00000+0  17951-3 0  9996
2 43799  97.3880 242.3858 0039651 207.9866 151.9242 15.28418083417155
SALSAT                  
1 46495U 20068K   26189.46701474  .00004931  00000+0  17203-3 0  9995
2 46495  97.8859 193.8315 0008516 218.2627 141.8009 15.30108644318618
HAWK-2C                 
1 47502U 21006CT  26189.08082485  .00004040  00000+0  12147-3 0  9993
2 47502  97.2270 232.9754 0008505 121.2853 238.9225 15.34927271302703
HAWK-2A                 
1 47505U 21006CW  26189.08311852  .00004034  00000+0  12126-3 0  9999
2 47505  97.2311 233.6677 0007978 124.2191 235.9810 15.34941410302703
HAWK-2B                 
1 47508U 21006CZ  26188.68611364  .00005110  00000+0  15236-3 0  9999
2 47508  97.2181 231.5775 0008543 124.0470 236.1586 15.35062896302643
HAWK-3B                 
1 48931U 21059BE  26189.54222878  .00038704  00000+0  30419-3 0  9997
2 48931  97.6652  28.2983 0003906 224.4609 135.6340 15.71414468281205
HAWK-3C                 
1 48948U 21059BX  26189.54192624  .00038991  00000+0  30651-3 0  9996
2 48948  97.6771  34.0207 0004226 223.2923 136.8007 15.71407356281202
HAWK-3A                 
1 48957U 21059CG  26189.54181301  .00041263  00000+0  32419-3 0  9996
2 48957  97.6713  31.2077 0004069 227.6759 132.4159 15.71409877281202
HAWK-5C                 
1 52754U 22057Y   26189.38867536  .00012425  00000+0  20705-3 0  9991
2 52754  97.6616 350.4379 0003473  12.0616 348.0718 15.52151684229635
HAWK-5B                 
1 52756U 22057AA  26189.38848185  .00011686  00000+0  19483-3 0  9991
2 52756  97.6630 348.7895 0004091 359.5569   0.5678 15.52155109229630
